#aV2019  8  4  0  0  0.00000000     288 DD+AD WGS84 FIT  NGA
## 2065      0.00000000   300.00000000 58699 0.0000000000000
+   31     1  2  3  5  6  7  8  9 10 11 12 13 14 15 16 17 18
+         19 20 21 22 23 24 25 26 27 28 29 30 31 32  0  0  0
+          0  0  0  0  0  0  0  0  0  0  0  0  0  0  0  0  0
+          0  0  0  0  0  0  0  0  0  0  0  0  0  0  0  0  0
+          0  0  0  0  0  0  0  0  0  0  0  0  0  0  0  0  0
++         2  2  2  2  2  2  2  2  2  2  2  2  2  2  2  2  2
++         2  2  2  2  2  2  2  2  2  2  2  2  2  2  0  0  0
++         0  0  0  0  0  0  0  0  0  0  0  0  0  0  0  0  0
++         0  0  0  0  0  0  0  0  0  0  0  0  0  0  0  0  0
++         0  0  0  0  0  0  0  0  0  0  0  0  0  0  0  0  0
%c cc cc ccc ccc cccc cccc cccc cccc ccccc ccccc ccccc ccccc
%c cc cc ccc ccc cccc cccc cccc cccc ccccc ccccc ccccc ccccc
%f  0.0000000  0.000000000  0.00000000000  0.000000000000000
%f  0.0000000  0.000000000  0.00000000000  0.000000000000000
%i    0    0    0    0      0      0      0      0         0
%i    0    0    0    0      0      0      0      0         0
/*      NGA, ST. LOUIS,MO.                                  
/*   EPHEMERIS COMPUTED FROM 2 DAYS OF DATA                 
/*   EPOCHA v5 SMOOTHER                                     
/*   G1762 IERS2010 SATAF SATAPC                            
*  2019  8  4  2 15  0.00000000
P  1 -13723.076417   7192.499814  21327.072673    -86.279381                    
V  1  -3641.559969 -27325.008621   7119.406483     -0.111384                    
P  2  14156.513718  15391.378323 -15849.307559   -275.090542                    
V  2   1683.528244  21255.378798  21196.391770     -0.084631                    
P  3 -22812.551104  12510.495495   5048.355148    176.909369                    
V  3   3589.370782  -6055.037630  31014.420723     -0.026815                    
P  5  17480.206324   4213.275492 -19742.857228     -0.373002                    
V  5 -18767.339193  16192.664511 -13043.829226     -0.002532                    
P  6   6337.482517  25284.439248  -4969.742935    -14.075792                    
V  6  -1557.312474   6581.311465  31276.627976     -0.116246                    
P  7  -7410.738563  21270.058135 -13409.191416    -77.947729                    
V  7  -4523.347285 -17322.666736 -24953.419778     -0.077673                    
P  8 -24778.229852  -3466.562427   9251.956104     -1.319524                    
V  8  -9919.643834  -6430.920860 -28862.713306     -0.014209                    
P  9 -10149.741168  12212.015042 -21331.669218    355.952131                    
V  9 -24736.410259 -10887.585279   5539.336332     -0.087097                    
P 10   3864.888544 -18772.340545  18361.495228     -1.402298                    
V 10  19590.536328 -12626.799013 -17291.847769     -0.137285                    
P 11 -16197.726830   3698.733760  20153.659884   -544.353530                    
V 11 -13486.526459 -23477.389309  -6644.621058      0.098264                    
P 12  23604.033341  -9068.347895   7632.783906    217.501067                    
V 12  -7252.685135   7228.987420  30327.082405     -0.036829                    
P 13  23200.181721  12955.062538    921.388215    -51.426312                    
V 13   -179.750509   2860.845812 -31840.625861      0.018621                    
P 14 -15270.456235 -18074.367446  12576.607255    -68.317426                    
V 14  14572.602054   5360.004570  25900.018410      0.018608                    
P 15  25124.407322   1165.642210   8850.654674   -296.519002                    
V 15   9989.649121   6650.104625 -27967.378666      0.025451                    
P 16 -16513.265868  -5752.721409 -20309.461955    -61.921479                    
V 16  21138.438885 -13699.720696 -13013.598969     -0.033034                    
P 17   8099.413763  17765.642405  18456.901873    100.494226                    
V 17 -20589.949800  -9165.014796  18180.268712      0.068761                    
P 18 -15459.457325  -2520.958300  20962.596584     75.122704                    
V 18  -3983.867315 -27522.950412  -5989.512879      0.029314                    
P 19  13835.949950  18008.715888  13430.470074   -285.536812                    
V 19 -16200.258314  -6971.420249  25507.935535      0.049970                    
P 20  11190.637706 -21496.796445  10570.337403    526.292592                    
V 20  12257.341338  -6978.151724 -27069.476681      0.001793                    
P 21   2088.811777 -24747.201447  -8855.483381   -142.659382                    
V 21   5048.657216  11625.346250 -28576.056234      0.067470                    
P 22 -22490.087223   7365.887177  12194.094902   -739.588019                    
V 22   9476.417635 -12352.589296  25500.108437     -0.046428                    
P 23 -21538.746788   3054.589249 -15159.423823   -173.982625                    
V 23 -17427.161448  -9553.648520  21944.221772      0.018933                    
P 24  15070.935977  -4391.289132  21250.267936     -0.295845                    
V 24   4971.892973  27012.924359   2375.245506     -0.005225                    
P 25  18893.602759 -17920.711333  -4704.818296     -5.290414                    
V 25   6204.944281  -1261.070042  31366.231967     -0.022972                    
P 26  -7985.353233 -13298.698311 -21568.486124      6.697132                    
V 26  21752.642109 -16649.216305   2391.122979      0.090811                    
P 27 -23416.490333 -12485.563719  -3265.427004    -13.437878                    
V 27   4419.530911   -240.254988 -31594.351694     -0.112348                    
P 28  -5365.180105  18264.822838  19168.685471    765.412545                    
V 28 -20112.769028  11179.787944 -16722.862640     -0.007314                    
P 29  13657.138557  -8696.567608 -21095.902566    134.186425                    
V 29  23403.575867  12713.020928   9909.396221     -0.099091                    
P 30   -698.582088  26200.393273  -3561.503241    -12.455272                    
V 30  -3923.530450  -4325.349897 -30977.781399     -0.077095                    
P 31  -6926.263970 -24456.749047  -6860.259808     19.758396                    
V 31   2327.237028  -9049.329335  30364.305647     -0.025776                    
P 32  -8638.607372 -17537.147400  18097.871039      5.576137                    
V 32  21609.831909   7496.429889  17520.815847      0.147688                    
EOF
